1 43013U 17073A   26019.55911981  .00000079  00000+0  58510-4 0  9994
2 43013  98.7641 320.4504 0001323  32.6518 327.4739 14.19537050423380
